FENGYUN 1C DEB          
1 29770U 99025BL  17345.64371980  .00000539  00000-0  33831-3 0  9996
2 29770  99.0357  33.7527 0075231 230.9782 260.5083 14.07496025558679
